FENGYUN 1C DEB          
1 29917U 99025HP  17345.62043795  .00000331  00000-0  38311-3 0  9995
2 29917  98.9000  40.7288 0236397 227.2255 290.3408 13.64499147542128
